[{"OBJECT_NAME":"ONEWEB-0035","OBJECT_ID":"2020-008N","EPOCH":"2025-12-22T03:55:01.197984","MEAN_MOTION":13.10370429,"ECCENTRICITY":0.00016394,"INCLINATION":87.8799,"RA_OF_ASC_NODE":71.5751,"ARG_OF_PERICENTER":101.982,"MEAN_ANOMALY":258.1491,"EPHEMERIS_TYPE":0,"CLASSIFICATION_TYPE":"U","NORAD_CAT_ID":45143,"ELEMENT_SET_NO":999,"REV_AT_EPOCH":28475,"BSTAR":-0.0014560911,"MEAN_MOTION_DOT":-4.96e-6,"MEAN_MOTION_DDOT":0},{"OBJECT_NAME":"ONEWEB-0036","OBJECT_ID":"2020-008P","EPOCH":"2025-12-22T05:30:39.017664","MEAN_MOTION":13.10369958,"ECCENTRICITY":0.00020047,"INCLINATION":87.8805,"RA_OF_ASC_NODE":71.522,"ARG_OF_PERICENTER":110.0621,"MEAN_ANOMALY":250.0722,"EPHEMERIS_TYPE":0,"CLASSIFICATION_TYPE":"U","NORAD_CAT_ID":45144,"ELEMENT_SET_NO":999,"REV_AT_EPOCH":28519,"BSTAR":-0.00059154449,"MEAN_MOTION_DOT":-1.94e-6,"MEAN_MOTION_DDOT":0},{"OBJECT_NAME":"ONEWEB-0038","OBJECT_ID":"2020-008Q","EPOCH":"2025-12-22T03:50:56.341248","MEAN_MOTION":13.1141626,"ECCENTRICITY":0.00028592,"INCLINATION":87.8855,"RA_OF_ASC_NODE":56.3125,"ARG_OF_PERICENTER":67.3681,"MEAN_ANOMALY":292.7749,"EPHEMERIS_TYPE":0,"CLASSIFICATION_TYPE":"U","NORAD_CAT_ID":45145,"ELEMENT_SET_NO":999,"REV_AT_EPOCH":28712,"BSTAR":0.0015827474,"MEAN_MOTION_DOT":5.74e-6,"MEAN_MOTION_DDOT":0},{"OBJECT_NAME":"ONEWEB-0039","OBJECT_ID":"2020-008R","EPOCH":"2025-12-21T21:45:44.994528","MEAN_MOTION":13.1036984,"ECCENTRICITY":0.00023531,"INCLINATION":87.881,"RA_OF_ASC_NODE":71.6026,"ARG_OF_PERICENTER":106.5975,"MEAN_ANOMALY":253.541,"EPHEMERIS_TYPE":0,"CLASSIFICATION_TYPE":"U","NORAD_CAT_ID":45146,"ELEMENT_SET_NO":999,"REV_AT_EPOCH":28494,"BSTAR":0.0015942663,"MEAN_MOTION_DOT":5.69e-6,"MEAN_MOTION_DDOT":0},{"OBJECT_NAME":"ONEWEB-0040","OBJECT_ID":"2020-008S","EPOCH":"2025-12-21T12:26:25.335456","MEAN_MOTION":13.10371693,"ECCENTRICITY":0.00018715,"INCLINATION":87.88,"RA_OF_ASC_NODE":71.7045,"ARG_OF_PERICENTER":102.9313,"MEAN_ANOMALY":257.2023,"EPHEMERIS_TYPE":0,"CLASSIFICATION_TYPE":"U","NORAD_CAT_ID":45147,"ELEMENT_SET_NO":999,"REV_AT_EPOCH":28459,"BSTAR":0.0019482592,"MEAN_MOTION_DOT":6.93e-6,"MEAN_MOTION_DDOT":0},{"OBJECT_NAME":"ONEWEB-0043","OBJECT_ID":"2020-008U","EPOCH":"2025-12-22T04:58:24.555360","MEAN_MOTION":13.10371395,"ECCENTRICITY":0.00023086,"INCLINATION":87.879,"RA_OF_ASC_NODE":71.548,"ARG_OF_PERICENTER":107.0785,"MEAN_ANOMALY":253.0596,"EPHEMERIS_TYPE":0,"CLASSIFICATION_TYPE":"U","NORAD_CAT_ID":45149,"ELEMENT_SET_NO":999,"REV_AT_EPOCH":28500,"BSTAR":0.0021114158,"MEAN_MOTION_DOT":7.5e-6,"MEAN_MOTION_DDOT":0},{"OBJECT_NAME":"ONEWEB-0044","OBJECT_ID":"2020-008V","EPOCH":"2025-12-22T05:39:00.608544","MEAN_MOTION":13.1037079,"ECCENTRICITY":0.0001966,"INCLINATION":87.8802,"RA_OF_ASC_NODE":71.5346,"ARG_OF_PERICENTER":108.3015,"MEAN_ANOMALY":251.8326,"EPHEMERIS_TYPE":0,"CLASSIFICATION_TYPE":"U","NORAD_CAT_ID":45150,"ELEMENT_SET_NO":999,"REV_AT_EPOCH":28530,"BSTAR":-0.0012599018,"MEAN_MOTION_DOT":-4.27e-6,"MEAN_MOTION_DDOT":0},{"OBJECT_NAME":"ONEWEB-0045","OBJECT_ID":"2020-008W","EPOCH":"2025-12-22T05:33:17.973792","MEAN_MOTION":13.11418074,"ECCENTRICITY":0.00018854,"INCLINATION":87.8864,"RA_OF_ASC_NODE":56.2832,"ARG_OF_PERICENTER":99.9561,"MEAN_ANOMALY":260.178,"EPHEMERIS_TYPE":0,"CLASSIFICATION_TYPE":"U","NORAD_CAT_ID":45151,"ELEMENT_SET_NO":999,"REV_AT_EPOCH":28721,"BSTAR":0.0012732976,"MEAN_MOTION_DOT":4.64e-6,"MEAN_MOTION_DDOT":0},{"OBJECT_NAME":"ONEWEB-0047","OBJECT_ID":"2020-008X","EPOCH":"2025-12-22T03:39:29.869920","MEAN_MOTION":13.10370126,"ECCENTRICITY":0.00018567,"INCLINATION":87.8798,"RA_OF_ASC_NODE":71.5603,"ARG_OF_PERICENTER":106.3967,"MEAN_ANOMALY":253.7365,"EPHEMERIS_TYPE":0,"CLASSIFICATION_TYPE":"U","NORAD_CAT_ID":45152,"ELEMENT_SET_NO":999,"REV_AT_EPOCH":28501,"BSTAR":-0.00042851973,"MEAN_MOTION_DOT":-1.37e-6,"MEAN_MOTION_DDOT":0},{"OBJECT_NAME":"ONEWEB-0048","OBJECT_ID":"2020-008Y","EPOCH":"2025-12-19T15:03:50.136768","MEAN_MOTION":13.10346409,"ECCENTRICITY":0.00010801,"INCLINATION":87.8856,"RA_OF_ASC_NODE":72.095,"ARG_OF_PERICENTER":92.5402,"MEAN_ANOMALY":267.5849,"EPHEMERIS_TYPE":0,"CLASSIFICATION_TYPE":"U","NORAD_CAT_ID":45153,"ELEMENT_SET_NO":999,"REV_AT_EPOCH":28429,"BSTAR":-0.0013127666,"MEAN_MOTION_DOT":-4.45e-6,"MEAN_MOTION_DDOT":0},{"OBJECT_NAME":"ONEWEB-0049","OBJECT_ID":"2020-008Z","EPOCH":"2025-12-22T05:26:52.414656","MEAN_MOTION":13.10371811,"ECCENTRICITY":0.00018605,"INCLINATION":87.8796,"RA_OF_ASC_NODE":71.5612,"ARG_OF_PERICENTER":120.0928,"MEAN_ANOMALY":240.0384,"EPHEMERIS_TYPE":0,"CLASSIFICATION_TYPE":"U","NORAD_CAT_ID":45154,"ELEMENT_SET_NO":999,"REV_AT_EPOCH":28485,"BSTAR":-7.3220696e-5,"MEAN_MOTION_DOT":-1.3e-7,"MEAN_MOTION_DDOT":0},{"OBJECT_NAME":"ONEWEB-0051","OBJECT_ID":"2020-008AA","EPOCH":"2025-12-22T05:30:49.899744","MEAN_MOTION":13.11417565,"ECCENTRICITY":0.00017607,"INCLINATION":87.8846,"RA_OF_ASC_NODE":56.303,"ARG_OF_PERICENTER":101.2606,"MEAN_ANOMALY":258.872,"EPHEMERIS_TYPE":0,"CLASSIFICATION_TYPE":"U","NORAD_CAT_ID":45155,"ELEMENT_SET_NO":999,"REV_AT_EPOCH":28789,"BSTAR":0.0011805357,"MEAN_MOTION_DOT":4.31e-6,"MEAN_MOTION_DDOT":0},{"OBJECT_NAME":"ONEWEB-0052","OBJECT_ID":"2020-008AB","EPOCH":"2025-12-22T05:18:42.439392","MEAN_MOTION":13.10368977,"ECCENTRICITY":0.00018007,"INCLINATION":87.881,"RA_OF_ASC_NODE":71.5244,"ARG_OF_PERICENTER":117.9387,"MEAN_ANOMALY":242.1923,"EPHEMERIS_TYPE":0,"CLASSIFICATION_TYPE":"U","NORAD_CAT_ID":45156,"ELEMENT_SET_NO":999,"REV_AT_EPOCH":28476,"BSTAR":0.00034929962,"MEAN_MOTION_DOT":1.35e-6,"MEAN_MOTION_DDOT":0},{"OBJECT_NAME":"ONEWEB-0053","OBJECT_ID":"2020-008AC","EPOCH":"2025-12-22T06:43:34.696416","MEAN_MOTION":13.10373964,"ECCENTRICITY":0.00020541,"INCLINATION":87.8799,"RA_OF_ASC_NODE":71.5574,"ARG_OF_PERICENTER":98.4847,"MEAN_ANOMALY":261.6514,"EPHEMERIS_TYPE":0,"CLASSIFICATION_TYPE":"U","NORAD_CAT_ID":45157,"ELEMENT_SET_NO":999,"REV_AT_EPOCH":28474,"BSTAR":0.0018399748,"MEAN_MOTION_DOT":6.55e-6,"MEAN_MOTION_DDOT":0},{"OBJECT_NAME":"ONEWEB-0054","OBJECT_ID":"2020-008AD","EPOCH":"2025-12-22T03:53:50.063136","MEAN_MOTION":13.10371805,"ECCENTRICITY":0.00017384,"INCLINATION":87.8799,"RA_OF_ASC_NODE":71.5533,"ARG_OF_PERICENTER":106.3254,"MEAN_ANOMALY":253.8065,"EPHEMERIS_TYPE":0,"CLASSIFICATION_TYPE":"U","NORAD_CAT_ID":45158,"ELEMENT_SET_NO":999,"REV_AT_EPOCH":28484,"BSTAR":-0.0014088286,"MEAN_MOTION_DOT":-4.79e-6,"MEAN_MOTION_DDOT":0},{"OBJECT_NAME":"ONEWEB-0056","OBJECT_ID":"2020-008AE","EPOCH":"2025-12-22T07:06:16.597152","MEAN_MOTION":13.10369663,"ECCENTRICITY":0.00016549,"INCLINATION":87.8802,"RA_OF_ASC_NODE":71.5249,"ARG_OF_PERICENTER":111.2158,"MEAN_ANOMALY":248.9147,"EPHEMERIS_TYPE":0,"CLASSIFICATION_TYPE":"U","NORAD_CAT_ID":45159,"ELEMENT_SET_NO":999,"REV_AT_EPOCH":28501,"BSTAR":0.00079968406,"MEAN_MOTION_DOT":2.92e-6,"MEAN_MOTION_DDOT":0}]
