ONEWEB-0035             
1 45143U 20008N   25356.16320831 -.00000496  00000+0 -14561-2 0  9991
2 45143  87.8799  71.5751 0001639 101.9820 258.1491 13.10370429284759
ONEWEB-0036             
1 45144U 20008P   25356.22961826 -.00000194  00000+0 -59154-3 0  9997
2 45144  87.8805  71.5220 0002004 110.0621 250.0722 13.10369958285198
ONEWEB-0038             
1 45145U 20008Q   25356.16037432  .00000574  00000+0  15827-2 0  9996
2 45145  87.8855  56.3125 0002859  67.3681 292.7749 13.11416260287124
ONEWEB-0039             
1 45146U 20008R   25355.90677077  .00000569  00000+0  15943-2 0  9996
2 45146  87.8810  71.6026 0002353 106.5975 253.5410 13.10369840284944
ONEWEB-0040             
1 45147U 20008S   25355.51834879  .00000693  00000+0  19483-2 0  9990
2 45147  87.8800  71.7045 0001871 102.9313 257.2023 13.10371693284597
ONEWEB-0043             
1 45149U 20008U   25356.20722865  .00000750  00000+0  21114-2 0  9998
2 45149  87.8790  71.5480 0002308 107.0785 253.0596 13.10371395285008
ONEWEB-0044             
1 45150U 20008V   25356.23542371 -.00000427  00000+0 -12599-2 0  9995
2 45150  87.8802  71.5346 0001966 108.3015 251.8326 13.10370790285302
ONEWEB-0045             
1 45151U 20008W   25356.23145803  .00000464  00000+0  12733-2 0  9994
2 45151  87.8864  56.2832 0001885  99.9561 260.1780 13.11418074287210
ONEWEB-0047             
1 45152U 20008X   25356.15242905 -.00000137  00000+0 -42852-3 0  9992
2 45152  87.8798  71.5603 0001856 106.3967 253.7365 13.10370126285011
ONEWEB-0048             
1 45153U 20008Y   25353.62766362 -.00000445  00000+0 -13128-2 0  9995
2 45153  87.8856  72.0950 0001080  92.5402 267.5849 13.10346409284293
ONEWEB-0049             
1 45154U 20008Z   25356.22699554 -.00000013  00000+0 -73221-4 0  9996
2 45154  87.8796  71.5612 0001860 120.0928 240.0384 13.10371811284859
ONEWEB-0051             
1 45155U 20008AA  25356.22974421  .00000431  00000+0  11805-2 0  9996
2 45155  87.8846  56.3030 0001760 101.2606 258.8720 13.11417565287890
ONEWEB-0052             
1 45156U 20008AB  25356.22132453  .00000135  00000+0  34930-3 0  9994
2 45156  87.8810  71.5244 0001800 117.9387 242.1923 13.10368977284768
ONEWEB-0053             
1 45157U 20008AC  25356.28026269  .00000655  00000+0  18400-2 0  9998
2 45157  87.8799  71.5574 0002054  98.4847 261.6514 13.10373964284749
ONEWEB-0054             
1 45158U 20008AD  25356.16238499 -.00000479  00000+0 -14088-2 0  9990
2 45158  87.8799  71.5533 0001738 106.3254 253.8065 13.10371805284841
ONEWEB-0056             
1 45159U 20008AE  25356.29602543  .00000292  00000+0  79968-3 0  9990
2 45159  87.8802  71.5249 0001654 111.2158 248.9147 13.10369663285011
